{
"type": "FeatureCollection",
"name": "Layers_Graticule",
"features": [
{ "type": "Feature", "properties": { }, "geometry": { "type": "LineString", "coordinates": [ [ 99.9961275, 38.8009754 ], [ 99.9945223, 39.1739333 ], [ 100.0028349, 40.1695881 ], [ 100.0028411, 40.6748078 ] ] } },
{ "type": "Feature", "properties": { }, "geometry": { "type": "LineString", "coordinates": [ [ 89.9979289, 1.7446427 ], [ 90.0020806, 2.2954727 ], [ 89.9936823, 3.2894726 ], [ 89.9939538, 4.2888541 ], [ 89.9935474, 5.2850845 ], [ 90.0021025, 6.2861598 ], [ 90.0005252, 7.2751226 ], [ 89.9995649, 8.2778098 ], [ 89.9979469, 9.2760972 ], [ 89.9955991, 10.2695127 ], [ 90.0025092, 11.2662534 ], [ 89.9995542, 12.258151 ], [ 89.997219, 13.2625111 ], [ 89.9941824, 14.2608302 ], [ 89.9999332, 15.2520443 ], [ 89.9961342, 16.246323 ], [ 90.001984, 17.2421683 ], [ 89.9981978, 18.2405129 ], [ 89.9943589, 19.2405124 ], [ 90.0003276, 20.2411597 ], [ 89.9957361, 21.2341068 ], [ 90.0010382, 22.2271465 ], [ 89.9970994, 23.2305259 ], [ 90.0025504, 24.22407 ], [ 89.9978375, 25.2180785 ], [ 89.9937809, 26.2208526 ], [ 89.9992771, 27.212887 ], [ 89.9951674, 28.2137123 ], [ 90.0008218, 29.2031974 ], [ 89.9966622, 30.2008802 ], [ 89.9931941, 31.2056806 ], [ 89.9997437, 32.1982204 ], [ 89.996187, 33.1979104 ], [ 89.9926267, 34.1944716 ], [ 90.00013, 35.1870435 ], [ 89.9973397, 36.1856054 ], [ 89.9945047, 37.1801226 ], [ 89.9924306, 38.1792422 ], [ 90.001771, 39.1728634 ], [ 90.0005521, 40.1709615 ], [ 90.000145, 41.1723841 ], [ 89.9941297, 41.4844188 ] ] } },
{ "type": "Feature", "properties": { }, "geometry": { "type": "LineString", "coordinates": [ [ 80.0013208, 2.1018567 ], [ 80.0013225, 2.2940487 ], [ 80.0013319, 3.2937256 ], [ 80.0013413, 4.2905821 ], [ 80.0013508, 5.2843307 ], [ 80.0013604, 6.2834851 ], [ 80.00137, 7.2787644 ], [ 80.0013798, 8.2789206 ], [ 80.0013897, 9.2745803 ], [ 80.0013995, 10.2653196 ], [ 80.0014097, 11.2691586 ], [ 80.0014197, 12.2583064 ], [ 80.0014301, 13.2600235 ], [ 80.0014404, 14.2556097 ], [ 80.001451, 15.2539142 ], [ 80.0014615, 16.2454825 ], [ 80.0014724, 17.248513 ], [ 80.0014833, 18.2440955 ], [ 80.0014943, 19.2413232 ], [ 80.0015056, 20.2398011 ], [ 80.0015169, 21.2299927 ], [ 80.0015284, 22.2302313 ], [ 80.0015402, 23.2308264 ], [ 80.001552, 24.2222252 ], [ 80.0015641, 25.2227236 ], [ 80.0015763, 26.2134221 ], [ 80.0015888, 27.2126522 ], [ 80.0016015, 28.210702 ], [ 80.0016144, 29.2073633 ], [ 80.0016275, 30.2022722 ], [ 80.001641, 31.204333 ], [ 80.0016545, 32.1947788 ], [ 80.0016684, 33.1917025 ], [ 80.0016827, 34.1948094 ], [ 80.0016971, 35.185326 ], [ 80.0017118, 36.1812251 ], [ 80.001727, 37.1821826 ], [ 80.0017424, 38.1786196 ], [ 80.0017581, 39.1703177 ], [ 80.0017744, 40.1748001 ], [ 80.0017909, 41.164723 ], [ 80.0018008, 41.7506309 ] ] } },
{ "type": "Feature", "properties": { }, "geometry": { "type": "LineString", "coordinates": [ [ 69.9960718, 1.7442134 ], [ 70.0005626, 2.2956617 ], [ 70.0002525, 3.2890393 ], [ 69.9999381, 4.2884183 ], [ 70.0003012, 5.2846463 ], [ 70.0006165, 6.2863533 ], [ 69.993236, 7.2746795 ], [ 69.9941517, 8.2773647 ], [ 69.9957248, 9.2756502 ], [ 69.9980274, 10.2690639 ], [ 70.0003082, 11.2664511 ], [ 69.9939805, 12.2576988 ], [ 69.9962685, 13.2620575 ], [ 69.9992578, 14.2603754 ], [ 69.9934594, 15.2515881 ], [ 69.9972101, 16.2458659 ], [ 70.0009586, 17.2423693 ], [ 69.9950477, 18.240054 ], [ 69.998836, 19.240053 ], [ 69.9928162, 20.2406995 ], [ 69.9973561, 21.2336464 ], [ 69.9920017, 22.2266856 ], [ 69.9958868, 23.230065 ], [ 70.0005515, 24.2242722 ], [ 69.99504, 25.2176178 ], [ 69.9990404, 26.2203924 ], [ 69.9934877, 27.212427 ], [ 69.9975395, 28.2132531 ], [ 69.9918267, 29.2027386 ], [ 69.9959264, 30.2004225 ], [ 69.9993331, 31.2052241 ], [ 69.9927218, 32.1977647 ], [ 69.996215, 33.1974562 ], [ 69.9997106, 34.1940191 ], [ 69.9921417, 35.1865923 ], [ 69.9948646, 36.185156 ], [ 69.997631, 37.1796753 ], [ 69.9996346, 38.178797 ], [ 70.001743, 39.1730578 ], [ 69.9913677, 40.1705206 ], [ 69.9916989, 41.1719458 ], [ 69.9976902, 41.4839816 ] ] } },
{ "type": "Feature", "properties": { }, "geometry": { "type": "LineString", "coordinates": [ [ 65.8244679, 40.0029258 ], [ 66.6548903, 40.002531 ], [ 67.648594, 40.0004975 ], [ 68.6296738, 40.0012764 ], [ 69.6214047, 40.0063848 ], [ 70.6132444, 40.006128 ], [ 71.6050303, 40.0005019 ], [ 72.5960527, 39.9984472 ], [ 73.5864589, 39.9999749 ], [ 74.5763961, 40.0050938 ], [ 75.5663779, 40.0048635 ], [ 76.5563067, 39.999284 ], [ 77.5456793, 40.0062577 ], [ 78.5468882, 39.9990292 ], [ 79.5362003, 40.004205 ], [ 80.5255582, 40.0040382 ], [ 81.5148643, 39.998529 ], [ 82.5044348, 40.0055795 ], [ 83.4937966, 39.9983352 ], [ 84.483718, 40.003644 ], [ 85.4736875, 40.0036036 ], [ 86.4641413, 40.0071568 ], [ 87.4546111, 40.0053555 ], [ 88.4456318, 40.0071388 ], [ 89.4367006, 40.0035584 ], [ 90.4285157, 40.003545 ], [ 91.4212239, 40.0070851 ], [ 92.4139476, 40.0052463 ], [ 93.4076944, 40.0069404 ], [ 94.4014229, 40.0032446 ], [ 95.384735, 40.0040336 ], [ 96.3795724, 39.9985074 ], [ 97.3655727, 40.0064485 ], [ 98.3616962, 39.9990437 ], [ 99.349294, 40.0051847 ], [ 100.2184404, 40.001119 ] ] } },
{ "type": "Feature", "properties": { }, "geometry": { "type": "LineString", "coordinates": [ [ 67.0029589, 29.9968212 ], [ 67.6456254, 30.0006321 ], [ 68.6314043, 29.998434 ], [ 69.6270173, 30.0001878 ], [ 70.6111895, 30.0044681 ], [ 71.6060372, 30.0033182 ], [ 72.6008166, 29.9960546 ], [ 73.5837959, 30.0008215 ], [ 74.5774693, 29.9999767 ], [ 75.570744, 30.0023203 ], [ 76.5640073, 29.9985691 ], [ 77.5570347, 29.9980155 ], [ 78.5391617, 30.0005658 ], [ 79.531955, 29.9971883 ], [ 80.524684, 29.9970146 ], [ 81.517476, 30.0000447 ], [ 82.5102677, 29.9969857 ], [ 83.492556, 29.9973583 ], [ 84.4858098, 30.0007625 ], [ 85.4791286, 29.9980699 ], [ 86.4727854, 29.9985673 ], [ 87.4563076, 30.0027363 ], [ 88.4505032, 30.000373 ], [ 89.445326, 30.0011754 ], [ 90.4294684, 29.9965516 ], [ 91.4258552, 30.0037166 ], [ 92.4116761, 30.0055658 ], [ 93.4081628, 30.0005242 ], [ 94.3949306, 29.9995461 ], [ 95.3827975, 30.00179 ], [ 96.3812532, 29.9969279 ], [ 97.3703011, 29.9962723 ], [ 98.3606769, 29.9987873 ], [ 98.5328346, 29.9978007 ] ] } },
{ "type": "Feature", "properties": { }, "geometry": { "type": "LineString", "coordinates": [ [ 67.9808193, 19.9981786 ], [ 68.6343554, 20.0027307 ], [ 69.6248625, 20.0002142 ], [ 70.6146261, 20.0004296 ], [ 71.604344, 19.9940726 ], [ 72.5929357, 19.9997899 ], [ 73.5913709, 19.9993723 ], [ 74.5795055, 20.0012355 ], [ 75.5676739, 19.9965496 ], [ 76.565297, 19.994871 ], [ 77.5528036, 19.9956864 ], [ 78.5401715, 19.999293 ], [ 79.5374713, 19.9963898 ], [ 80.5247882, 19.9961836 ], [ 81.5121596, 19.9987712 ], [ 82.5094461, 19.9946512 ], [ 83.4971881, 20.0027549 ], [ 84.4846875, 19.9949828 ], [ 85.4827096, 19.9989588 ], [ 86.4708248, 19.9966832 ], [ 87.4593801, 19.9971785 ], [ 88.4484858, 20.0004349 ], [ 89.4376459, 19.997124 ], [ 90.4372285, 19.9958713 ], [ 91.4277029, 19.9979752 ], [ 92.4190835, 20.0027907 ], [ 93.4006043, 20.0019035 ], [ 94.3928919, 20.0028876 ], [ 95.3851994, 19.9972603 ], [ 96.3784645, 19.9943047 ], [ 97.1352795, 20.002824 ] ] } },
{ "type": "Feature", "properties": { }, "geometry": { "type": "LineString", "coordinates": [ [ 68.8301219, 9.9994011 ], [ 69.6219624, 9.9956672 ], [ 70.6157562, 9.9919063 ], [ 71.6084055, 9.9993637 ], [ 72.6010605, 9.9998858 ], [ 73.5845585, 9.9930643 ], [ 74.5763232, 9.9979689 ], [ 75.5681593, 9.9959549 ], [ 76.5596427, 9.9961141 ], [ 77.5509707, 9.9984548 ], [ 78.5422318, 9.9938811 ], [ 79.5333692, 10.0005907 ], [ 80.5245018, 10.0003889 ], [ 81.5156334, 9.9932758 ], [ 82.5068907, 9.9974459 ], [ 83.498209, 9.9947018 ], [ 84.4896808, 9.994139 ], [ 85.4815033, 9.9957495 ], [ 86.4736702, 9.9995297 ], [ 87.4566786, 9.9968657 ], [ 88.4493614, 9.9959374 ], [ 89.4425454, 9.9971575 ], [ 90.4364275, 10.0005069 ], [ 91.4211112, 9.9976477 ], [ 92.4157047, 9.9962255 ], [ 93.4019154, 9.9977696 ], [ 94.3982143, 10.0005889 ], [ 95.3853318, 9.9974219 ], [ 95.921492, 10.0022129 ] ] } },
{ "type": "Feature", "properties": { }, "geometry": { "type": "LineString", "coordinates": [ [ 100.0028678, 40.6748099 ], [ 100.0493814, 40.9218213 ] ] } },
{ "type": "Feature", "properties": { }, "geometry": { "type": "LineString", "coordinates": [ [ 89.9979289, 1.7446427 ], [ 89.9807737, 1.5015542 ] ] } },
{ "type": "Feature", "properties": { }, "geometry": { "type": "LineString", "coordinates": [ [ 89.9941218, 41.4844044 ], [ 90.0175987, 41.7320965 ] ] } },
{ "type": "Feature", "properties": { }, "geometry": { "type": "LineString", "coordinates": [ [ 80.0013208, 2.1018567 ], [ 80.0013185, 1.8575906 ] ] } },
{ "type": "Feature", "properties": { }, "geometry": { "type": "LineString", "coordinates": [ [ 80.0018008, 41.7506162 ], [ 80.0018051, 41.9985237 ] ] } },
{ "type": "Feature", "properties": { }, "geometry": { "type": "LineString", "coordinates": [ [ 69.9960718, 1.7442134 ], [ 70.0132372, 1.5011263 ] ] } },
{ "type": "Feature", "properties": { }, "geometry": { "type": "LineString", "coordinates": [ [ 69.9976916, 41.4839668 ], [ 69.9741956, 41.7316586 ] ] } },
{ "type": "Feature", "properties": { }, "geometry": { "type": "LineString", "coordinates": [ [ 65.8244679, 40.0029258 ], [ 65.5002681, 39.9774616 ] ] } },
{ "type": "Feature", "properties": { }, "geometry": { "type": "LineString", "coordinates": [ [ 100.2184112, 40.0011373 ], [ 100.5408725, 39.9650046 ] ] } },
{ "type": "Feature", "properties": { }, "geometry": { "type": "LineString", "coordinates": [ [ 67.0029589, 29.9968212 ], [ 66.7053799, 29.9725804 ] ] } },
{ "type": "Feature", "properties": { }, "geometry": { "type": "LineString", "coordinates": [ [ 98.5328076, 29.9978194 ], [ 98.8290535, 29.9634227 ] ] } },
{ "type": "Feature", "properties": { }, "geometry": { "type": "LineString", "coordinates": [ [ 67.9808193, 19.9981786 ], [ 67.7053948, 19.9756565 ] ] } },
{ "type": "Feature", "properties": { }, "geometry": { "type": "LineString", "coordinates": [ [ 97.1352542, 20.0028425 ], [ 97.4096323, 19.9708837 ] ] } },
{ "type": "Feature", "properties": { }, "geometry": { "type": "LineString", "coordinates": [ [ 68.8301219, 9.9994011 ], [ 68.573984, 9.9789975 ] ] } },
{ "type": "Feature", "properties": { }, "geometry": { "type": "LineString", "coordinates": [ [ 95.9214684, 10.0022308 ], [ 96.176764, 9.9732786 ] ] } },
{ "type": "Feature", "properties": { }, "geometry": { "type": "LineString", "coordinates": [ [ 69.4695725, 1.7055374 ], [ 65.6648485, 41.2012373 ], [ 100.3390163, 40.6379224 ], [ 94.964947, 1.3006154 ], [ 69.4695725, 1.7055374 ] ] } }
]
}
