{
"type": "FeatureCollection",
"name": "Layers_POLY",
"features": [
{ "type": "Feature", "properties": { }, "geometry": { "type": "Polygon", "coordinates": [ [ [ 75.7532594, 23.1623114 ], [ 85.8497362, 23.4087039 ], [ 85.9170315, 23.995883 ], [ 83.3165699, 24.6541297 ], [ 78.147597, 29.7734434 ], [ 76.8704507, 35.1109515 ], [ 75.5191887, 34.8884666 ], [ 76.1151706, 33.3679146 ], [ 75.8754401, 31.7361928 ], [ 75.1078481, 30.3607486 ], [ 73.0075224, 24.1565797 ], [ 73.1042613, 22.3444536 ], [ 72.8565132, 22.0895007 ], [ 73.0372695, 21.9013722 ], [ 73.808542, 21.2800734 ], [ 74.2064996, 15.8705242 ], [ 74.5346583, 15.0954085 ], [ 76.8260891, 17.3443012 ], [ 82.4641571, 17.5533174 ], [ 85.5001772, 23.0566862 ], [ 75.7532594, 23.1623114 ] ] ] } }
]
}
